#dP2018 11  3  0  0  0.00000000      96 __u+U IGS08 FIT  IAC
## 2025 518400.00000000   900.00000000 58425 0.0000000000000
+   91   C01C02C03C04C05C06C07C08C10C11C12C13C14E01E02E03E04
+        E05E07E08E09E11E12E14E18E19E21E24E25E26E27E30E31G01
+        G02G03G05G06G07G08G09G10G11G12G13G14G15G16G17G18G19
+        G20G21G22G23G24G25G26G27G28G29G30G31G32J01J02J03J07
+        R01R02R03R04R05R07R08R09R10R11R13R14R15R16R17R18R19
+        R20R21R22R23R24R26  0  0  0  0  0  0  0  0  0  0  0
++        12 12 12 12 12  8  8  8  8  7  7  7  7  7  7  7  7
++         7  7  7  7  7  7  7  7  7  7  7  7  7  7  7  6  3
++         3  3  3  3  3  3  3  3  3  3  3  3  3  3  3  3  3
++         3  3  3  3  3  3  3  3  3  3  3  3  3 11 11 11 16
++         5  5  5  5  5  5  5  5  5  5  5  5  5  5  6  5  5
++         5  5  5  5  5  8  0  0  0  0  0  0  0  0  0  0  0
%c M  cc GPS ccc cccc cccc cccc cccc ccccc ccccc ccccc ccccc
%c cc cc ccc ccc cccc cccc cccc cccc ccccc ccccc ccccc ccccc
%f  1.2500000  1.025000000  0.00000000000  0.000000000000000
%f  0.0000000  0.000000000  0.00000000000  0.000000000000000
%i    0    0    0    0      0      0      0      0         0
%i    0    0    0    0      0      0      0      0         0
/* INFORMATION & ANALYSIS CENTER (IAC)            FINAL DATA
/* S/V CLOCKS ARE ALIGNED TO GPS & GLONASS TIME RESPECTIVELY
/* USING THE BROADCAST EPHEMERIS                            
/* PCV:IGS14_2022 OL/AL:FES2004  NONE     YN ORB:CoN CLK:CoN
*  2018 11 03 19 15  0.00000000
PC01 -32253.004671  27128.316680   1060.982325   -158.875963
PC02   4383.545171  41959.483306   -455.607439    -73.185950
PC03 -14835.965111  39446.084146    511.414465   -171.077586
PC04 -39603.969961  14457.691628    563.668351     63.689975
PC05  21903.104740  36011.758772   -716.575939    169.974780
PC06 -10756.896322  22396.902694 -33757.525593     13.957674
PC07 -24094.616067  28504.058408  19280.781323   -125.265764
PC08 -12883.193641  37616.954866  14512.001467     20.059428
PC10  -9135.009075  29409.178308  28797.925644   -208.260406
PC11 -12646.284474   9195.304416  23180.731095    -25.449307
PC12 -18276.740543 -11428.805865  17727.540913    189.510180
PC13  -3119.300289  42177.074612  -1051.868277   -358.674478
PC14 -24349.398877   6499.156679 -11987.380162    669.290281
PE01  -1104.344253 -17829.384615 -23595.089904   -470.164169
PE02   1158.569205  17813.199967  23620.187267     33.734871
PE03  12481.022961  20264.086642 -17613.341680    -95.653336
PE04 -26158.292087 -13823.866138    890.458330   -151.203074
PE05  -8601.940676  14862.686461 -24113.086216    165.703192
PE07  24581.196979   -782.530236  16482.175441    -68.672178
PE08  26306.938833  13559.574613   -848.420588   6470.028001
PE09 -24518.389250    915.141420 -16546.416105   6628.467941
PE11 -15522.930214   7763.749439  23972.046122   5704.206075
PE12 -14897.220743 -15144.071858  20618.620200   5417.763291
PE14  21779.574226  15921.035825  -9150.769288   6494.909385
PE18 -14317.477154 -24725.404841  -3982.909453   5783.484759
PE19 -10626.566442 -20123.335771  18928.389274    -10.912213
PE21  18086.374621 -20707.617298 -10971.357859   -502.707768
PE24 -26279.374436  11511.819805  -7311.960024   6407.915334
PE25 -18085.340214  20707.165541  10971.424992   1994.014385
PE26   7237.257798 -25457.872119 -13237.951373   5289.885450
PE27  26224.312133 -11200.263550   7957.003467    597.797500
PE30  19407.729736   4507.365289  21889.175020   5379.618297
PE31 -18975.011990  -4847.311390 -22177.721658    993.027002
PG01 -13659.048667  20605.818245   9123.215210   -109.272010
PG02  15558.273166   -446.500245 -20918.103030    -48.535925
PG03 -18486.249256  13353.517675 -13596.482316    156.440899
PG05  26178.649627  -2522.176817  -4544.270453     -0.452524
PG06   9170.236309  15095.983693 -19799.382109    339.444719
PG07  -4908.011069  25309.377230   5507.301110     95.020015
PG08 -16538.991494   2811.901116  20678.654139   -120.909282
PG09   1380.114131  20024.844483 -17435.575147    495.486996
PG10 -11405.636563 -12379.350077  20627.198465    168.253595
PG11 -10779.080071  17758.003308  16118.973545   -703.582123
PG12  22054.716322 -10133.286308 -10767.979490    294.879260
PG13  18799.299131   5932.515762  17698.505283    -85.441573
PG14 -18478.232128 -18331.161453  -5434.865671    -96.158934
PG15  14494.378335  -7605.232403  20726.518366   -340.997331
PG16 -26109.711360  -1073.168639  -6042.181403      0.817100
PG17  14069.245615  22283.668253   4187.138865    -36.035696
PG18 -15843.963991  13074.079093  16276.100337     75.428098
PG19  18400.290926  17955.669863  -6702.842514   -387.260493
PG20  -1046.251657 -16115.300628  20951.586902    518.207146
PG21    316.914457 -25286.288498   9018.443210   -310.455955
PG22 -23344.696941  10961.951344  -6038.537572   -564.414813
PG23  -7626.528924  14064.074737 -20840.632374   -207.123857
PG24  14953.663851 -17271.799813  13151.858919    -57.689248
PG25  11025.037135 -15246.154493 -18830.769309   -671.467479
PG26 -21376.679836  -5948.263280 -14714.532564     28.755792
PG27 -20485.597205  -7847.581194  15079.634128    -13.281713
PG28   7939.005223  13773.636958  21893.700748    752.891385
PG29    909.393726 -18973.181063 -18583.766936    343.639596
PG30   2992.818792  21785.768377  14792.793919      0.608089
PG31 -10790.674883 -12442.065905 -20719.601897     82.204811
PG32 -16347.504443 -20866.927845   2401.878134   -370.295113
PJ01 -30929.880993  19013.239674 -16792.530485   -282.430760
PJ02 -27122.307477  32263.851009    628.451296      0.542959
PJ03 -25529.293293  22995.051546  29544.775066      0.624751
PJ07 -25409.130892  33656.237432    -38.884313    202.272257
PR01  23107.160175    646.358649  10796.493351     34.424395
PR02   7239.385678  -9143.468524  22711.512753    337.749468
PR03 -11538.185333 -12602.645164  18989.624607    147.828150
PR04 -23787.213905  -8433.849082   3771.969946    282.380535
PR05 -22074.401561    175.393118 -12796.214461     14.628391
PR07  11932.546758  12566.290548 -18675.325401    -50.805353
PR08  23550.667446   8726.078451  -4398.287371     20.637195
PR09 -13910.644417  19428.914038   8849.675811     36.819647
PR10  -1231.166528  14534.762261  20889.407250     34.895914
PR11  13699.011418   1098.235746  21521.130727    -45.942186
PR13  14191.446306 -19579.334739  -8141.742202    -16.423123
PR14   1097.847104 -14793.219453 -20736.583618     32.634506
PR15 -10313.119425  -4728.043963 -22840.197382    -18.691969
PR16 -19601.584181  12603.031565 -10517.012975    105.503007
PR17  -6521.481176 -24628.025545    642.203399    177.484222
PR18 -11641.997690 -15798.745933  16338.371947     26.870727
PR19 -10358.139524   1652.076675  23251.394980    -61.236164
PR20  -2855.929323  19674.241480  15965.470310   -357.840360
PR21   6739.403367  24595.911556  -1110.723373    -12.530980
PR22  11767.927762  13669.306012 -17977.103622    -64.793280
PR23   9025.992307  -6648.625181 -22919.138729    188.452941
PR24   1851.412310 -20589.149416 -14972.384989   -173.345997
PR26  -3294.246150  18670.095259  17093.664288     27.794006
EOF
